STARLINK-4048           
1 52839U 22062K   25275.02785845 -.00000387  00000+0 -62533-5 0  9992
2 52839  53.2197  26.3876 0001373  91.4523 268.6626 15.08836262181834
STARLINK-4049           
1 52840U 22062L   25275.04259331  .00000476  00000+0  47992-4 0  9990
2 52840  53.2184  26.4320 0001437  86.5076 273.6080 15.08833501181839
STARLINK-4065           
1 52841U 22062M   25275.01681663  .00001677  00000+0  12341-3 0  9998
2 52841  53.2186  26.4318 0001386  87.0679 273.0472 15.08837954181832
STARLINK-4046           
1 52842U 22062N   25275.03153029 -.00000612  00000+0 -20363-4 0  9995
2 52842  53.2174  26.2896 0001349  87.2980 272.8166 15.08838851181839
STARLINK-4188           
1 52843U 22062P   25275.00945245  .00010695  00000+0  68913-3 0  9994
2 52843  53.2175  26.4636 0001426  84.8003 275.3152 15.08836091181837
STARLINK-4208           
1 52844U 22062Q   25275.02417662 -.00001091  00000+0 -50446-4 0  9999
2 52844  53.2213  26.3996 0001800 100.5027 259.6168 15.08838318181833
STARLINK-4168           
1 52845U 22062R   25275.01314508 -.00001536  00000+0 -78452-4 0  9995
2 52845  53.2185  26.5185 0001633 106.0055 254.1117 15.08829699181836
STARLINK-4212           
1 52846U 22062S   25275.01409977 -.00001100  00000+0 -51066-4 0  9990
2 52846  53.2187  26.4576 0001490 104.9720 255.1437 15.08828873181838
STARLINK-4206           
1 52847U 22062T   25275.00209497  .00001304  00000+0  10002-3 0  9993
2 52847  53.2189  26.4967 0001243  93.6843 266.4292 15.08843599181837
STARLINK-4202           
1 52848U 22062U   25275.02049654 -.00000098  00000+0  11947-4 0  9993
2 52848  53.2189  26.4175 0001569  98.3535 261.7635 15.08842256181838
STARLINK-4197           
1 52849U 22062V   25274.99565676 -.00000878  00000+0 -37071-4 0  9999
2 52849  53.2190  16.5270 0001396  88.6273 271.4879 15.08841229181967
STARLINK-4187           
1 52850U 22062W   25275.03989946  .00001861  00000+0  13498-3 0  9994
2 52850  53.2167  26.6853 0001345  84.8732 275.2413 15.08842033181830
STARLINK-3809           
1 52851U 22062X   25274.99197573 -.00001546  00000+0 -79107-4 0  9998
2 52851  53.2195  16.5479 0001637 101.8349 258.2826 15.08830418181969
STARLINK-4184           
1 52852U 22062Y   25274.99934169  .00000704  00000+0  62296-4 0  9993
2 52852  53.2181  16.5085 0001201  82.5916 277.5213 15.08838171181968
STARLINK-4189           
1 52853U 22062Z   25274.98188962 -.00003390  00000+0 -19506-3 0  9996
2 52853  53.2174  16.5590 0001180  91.1946 268.9181 15.08831079181965
STARLINK-4204           
1 52854U 22062AA  25274.65709686 -.00001084  00000+0 -50045-4 0  9995
2 52854  53.2204  18.0485 0001687 101.9064 258.2117 15.08832595181913
STARLINK-4209           
1 52855U 22062AB  25274.97726041 -.00000618  00000+0 -20761-4 0  9999
2 52855  53.2187  16.6056 0001339  94.0759 266.0387 15.08834060181969
