[{"OBJECT_NAME":"STARLINK-4048","OBJECT_ID":"2022-062K","EPOCH":"2025-10-02T00:40:06.970080","MEAN_MOTION":15.08836262,"ECCENTRICITY":0.0001373,"INCLINATION":53.2197,"RA_OF_ASC_NODE":26.3876,"ARG_OF_PERICENTER":91.4523,"MEAN_ANOMALY":268.6626,"EPHEMERIS_TYPE":0,"CLASSIFICATION_TYPE":"U","NORAD_CAT_ID":52839,"ELEMENT_SET_NO":999,"REV_AT_EPOCH":18183,"BSTAR":-6.2533e-6,"MEAN_MOTION_DOT":-3.87e-6,"MEAN_MOTION_DDOT":0},{"OBJECT_NAME":"STARLINK-4049","OBJECT_ID":"2022-062L","EPOCH":"2025-10-02T01:01:20.061984","MEAN_MOTION":15.08833501,"ECCENTRICITY":0.0001437,"INCLINATION":53.2184,"RA_OF_ASC_NODE":26.432,"ARG_OF_PERICENTER":86.5076,"MEAN_ANOMALY":273.608,"EPHEMERIS_TYPE":0,"CLASSIFICATION_TYPE":"U","NORAD_CAT_ID":52840,"ELEMENT_SET_NO":999,"REV_AT_EPOCH":18183,"BSTAR":4.7992e-5,"MEAN_MOTION_DOT":4.76e-6,"MEAN_MOTION_DDOT":0},{"OBJECT_NAME":"STARLINK-4065","OBJECT_ID":"2022-062M","EPOCH":"2025-10-02T00:24:12.956832","MEAN_MOTION":15.08837954,"ECCENTRICITY":0.0001386,"INCLINATION":53.2186,"RA_OF_ASC_NODE":26.4318,"ARG_OF_PERICENTER":87.0679,"MEAN_ANOMALY":273.0472,"EPHEMERIS_TYPE":0,"CLASSIFICATION_TYPE":"U","NORAD_CAT_ID":52841,"ELEMENT_SET_NO":999,"REV_AT_EPOCH":18183,"BSTAR":0.00012341,"MEAN_MOTION_DOT":1.677e-5,"MEAN_MOTION_DDOT":0},{"OBJECT_NAME":"STARLINK-4046","OBJECT_ID":"2022-062N","EPOCH":"2025-10-02T00:45:24.217056","MEAN_MOTION":15.08838851,"ECCENTRICITY":0.0001349,"INCLINATION":53.2174,"RA_OF_ASC_NODE":26.2896,"ARG_OF_PERICENTER":87.298,"MEAN_ANOMALY":272.8166,"EPHEMERIS_TYPE":0,"CLASSIFICATION_TYPE":"U","NORAD_CAT_ID":52842,"ELEMENT_SET_NO":999,"REV_AT_EPOCH":18183,"BSTAR":-2.0363e-5,"MEAN_MOTION_DOT":-6.12e-6,"MEAN_MOTION_DDOT":0},{"OBJECT_NAME":"STARLINK-4188","OBJECT_ID":"2022-062P","EPOCH":"2025-10-02T00:13:36.691680","MEAN_MOTION":15.08836091,"ECCENTRICITY":0.0001426,"INCLINATION":53.2175,"RA_OF_ASC_NODE":26.4636,"ARG_OF_PERICENTER":84.8003,"MEAN_ANOMALY":275.3152,"EPHEMERIS_TYPE":0,"CLASSIFICATION_TYPE":"U","NORAD_CAT_ID":52843,"ELEMENT_SET_NO":999,"REV_AT_EPOCH":18183,"BSTAR":0.00068913,"MEAN_MOTION_DOT":0.00010695,"MEAN_MOTION_DDOT":0},{"OBJECT_NAME":"STARLINK-4208","OBJECT_ID":"2022-062Q","EPOCH":"2025-10-02T00:34:48.859968","MEAN_MOTION":15.08838318,"ECCENTRICITY":0.00018,"INCLINATION":53.2213,"RA_OF_ASC_NODE":26.3996,"ARG_OF_PERICENTER":100.5027,"MEAN_ANOMALY":259.6168,"EPHEMERIS_TYPE":0,"CLASSIFICATION_TYPE":"U","NORAD_CAT_ID":52844,"ELEMENT_SET_NO":999,"REV_AT_EPOCH":18183,"BSTAR":-5.0446e-5,"MEAN_MOTION_DOT":-1.091e-5,"MEAN_MOTION_DDOT":0},{"OBJECT_NAME":"STARLINK-4168","OBJECT_ID":"2022-062R","EPOCH":"2025-10-02T00:18:55.734912","MEAN_MOTION":15.08829699,"ECCENTRICITY":0.0001633,"INCLINATION":53.2185,"RA_OF_ASC_NODE":26.5185,"ARG_OF_PERICENTER":106.0055,"MEAN_ANOMALY":254.1117,"EPHEMERIS_TYPE":0,"CLASSIFICATION_TYPE":"U","NORAD_CAT_ID":52845,"ELEMENT_SET_NO":999,"REV_AT_EPOCH":18183,"BSTAR":-7.8452e-5,"MEAN_MOTION_DOT":-1.536e-5,"MEAN_MOTION_DDOT":0},{"OBJECT_NAME":"STARLINK-4212","OBJECT_ID":"2022-062S","EPOCH":"2025-10-02T00:20:18.220128","MEAN_MOTION":15.08828873,"ECCENTRICITY":0.000149,"INCLINATION":53.2187,"RA_OF_ASC_NODE":26.4576,"ARG_OF_PERICENTER":104.972,"MEAN_ANOMALY":255.1437,"EPHEMERIS_TYPE":0,"CLASSIFICATION_TYPE":"U","NORAD_CAT_ID":52846,"ELEMENT_SET_NO":999,"REV_AT_EPOCH":18183,"BSTAR":-5.1066e-5,"MEAN_MOTION_DOT":-1.1e-5,"MEAN_MOTION_DDOT":0},{"OBJECT_NAME":"STARLINK-4206","OBJECT_ID":"2022-062T","EPOCH":"2025-10-02T00:03:01.005408","MEAN_MOTION":15.08843599,"ECCENTRICITY":0.0001243,"INCLINATION":53.2189,"RA_OF_ASC_NODE":26.4967,"ARG_OF_PERICENTER":93.6843,"MEAN_ANOMALY":266.4292,"EPHEMERIS_TYPE":0,"CLASSIFICATION_TYPE":"U","NORAD_CAT_ID":52847,"ELEMENT_SET_NO":999,"REV_AT_EPOCH":18183,"BSTAR":0.00010002,"MEAN_MOTION_DOT":1.304e-5,"MEAN_MOTION_DDOT":0},{"OBJECT_NAME":"STARLINK-4202","OBJECT_ID":"2022-062U","EPOCH":"2025-10-02T00:29:30.901056","MEAN_MOTION":15.08842256,"ECCENTRICITY":0.0001569,"INCLINATION":53.2189,"RA_OF_ASC_NODE":26.4175,"ARG_OF_PERICENTER":98.3535,"MEAN_ANOMALY":261.7635,"EPHEMERIS_TYPE":0,"CLASSIFICATION_TYPE":"U","NORAD_CAT_ID":52848,"ELEMENT_SET_NO":999,"REV_AT_EPOCH":18183,"BSTAR":1.1947e-5,"MEAN_MOTION_DOT":-9.8e-7,"MEAN_MOTION_DDOT":0},{"OBJECT_NAME":"STARLINK-4197","OBJECT_ID":"2022-062V","EPOCH":"2025-10-01T23:53:44.744064","MEAN_MOTION":15.08841229,"ECCENTRICITY":0.0001396,"INCLINATION":53.219,"RA_OF_ASC_NODE":16.527,"ARG_OF_PERICENTER":88.6273,"MEAN_ANOMALY":271.4879,"EPHEMERIS_TYPE":0,"CLASSIFICATION_TYPE":"U","NORAD_CAT_ID":52849,"ELEMENT_SET_NO":999,"REV_AT_EPOCH":18196,"BSTAR":-3.7071e-5,"MEAN_MOTION_DOT":-8.78e-6,"MEAN_MOTION_DDOT":0},{"OBJECT_NAME":"STARLINK-4187","OBJECT_ID":"2022-062W","EPOCH":"2025-10-02T00:57:27.313344","MEAN_MOTION":15.08842033,"ECCENTRICITY":0.0001345,"INCLINATION":53.2167,"RA_OF_ASC_NODE":26.6853,"ARG_OF_PERICENTER":84.8732,"MEAN_ANOMALY":275.2413,"EPHEMERIS_TYPE":0,"CLASSIFICATION_TYPE":"U","NORAD_CAT_ID":52850,"ELEMENT_SET_NO":999,"REV_AT_EPOCH":18183,"BSTAR":0.00013498,"MEAN_MOTION_DOT":1.861e-5,"MEAN_MOTION_DDOT":0},{"OBJECT_NAME":"STARLINK-3809","OBJECT_ID":"2022-062X","EPOCH":"2025-10-01T23:48:26.703072","MEAN_MOTION":15.08830418,"ECCENTRICITY":0.0001637,"INCLINATION":53.2195,"RA_OF_ASC_NODE":16.5479,"ARG_OF_PERICENTER":101.8349,"MEAN_ANOMALY":258.2826,"EPHEMERIS_TYPE":0,"CLASSIFICATION_TYPE":"U","NORAD_CAT_ID":52851,"ELEMENT_SET_NO":999,"REV_AT_EPOCH":18196,"BSTAR":-7.9107e-5,"MEAN_MOTION_DOT":-1.546e-5,"MEAN_MOTION_DDOT":0},{"OBJECT_NAME":"STARLINK-4184","OBJECT_ID":"2022-062Y","EPOCH":"2025-10-01T23:59:03.122016","MEAN_MOTION":15.08838171,"ECCENTRICITY":0.0001201,"INCLINATION":53.2181,"RA_OF_ASC_NODE":16.5085,"ARG_OF_PERICENTER":82.5916,"MEAN_ANOMALY":277.5213,"EPHEMERIS_TYPE":0,"CLASSIFICATION_TYPE":"U","NORAD_CAT_ID":52852,"ELEMENT_SET_NO":999,"REV_AT_EPOCH":18196,"BSTAR":6.2296e-5,"MEAN_MOTION_DOT":7.04e-6,"MEAN_MOTION_DDOT":0},{"OBJECT_NAME":"STARLINK-4189","OBJECT_ID":"2022-062Z","EPOCH":"2025-10-01T23:33:55.263168","MEAN_MOTION":15.08831079,"ECCENTRICITY":0.000118,"INCLINATION":53.2174,"RA_OF_ASC_NODE":16.559,"ARG_OF_PERICENTER":91.1946,"MEAN_ANOMALY":268.9181,"EPHEMERIS_TYPE":0,"CLASSIFICATION_TYPE":"U","NORAD_CAT_ID":52853,"ELEMENT_SET_NO":999,"REV_AT_EPOCH":18196,"BSTAR":-0.00019506,"MEAN_MOTION_DOT":-3.39e-5,"MEAN_MOTION_DDOT":0},{"OBJECT_NAME":"STARLINK-4204","OBJECT_ID":"2022-062AA","EPOCH":"2025-10-01T15:46:13.168704","MEAN_MOTION":15.08832595,"ECCENTRICITY":0.00016871,"INCLINATION":53.2204,"RA_OF_ASC_NODE":18.0485,"ARG_OF_PERICENTER":101.9064,"MEAN_ANOMALY":258.2117,"EPHEMERIS_TYPE":0,"CLASSIFICATION_TYPE":"U","NORAD_CAT_ID":52854,"ELEMENT_SET_NO":999,"REV_AT_EPOCH":18191,"BSTAR":-5.0045072e-5,"MEAN_MOTION_DOT":-1.084e-5,"MEAN_MOTION_DDOT":0},{"OBJECT_NAME":"STARLINK-4209","OBJECT_ID":"2022-062AB","EPOCH":"2025-10-01T23:27:15.299424","MEAN_MOTION":15.0883406,"ECCENTRICITY":0.0001339,"INCLINATION":53.2187,"RA_OF_ASC_NODE":16.6056,"ARG_OF_PERICENTER":94.0759,"MEAN_ANOMALY":266.0387,"EPHEMERIS_TYPE":0,"CLASSIFICATION_TYPE":"U","NORAD_CAT_ID":52855,"ELEMENT_SET_NO":999,"REV_AT_EPOCH":18196,"BSTAR":-2.0761e-5,"MEAN_MOTION_DOT":-6.18e-6,"MEAN_MOTION_DDOT":0}]
